[{"OBJECT_NAME":"STARLINK-36938","OBJECT_ID":"2026-044Z","EPOCH":"2026-04-06T21:06:50.072544","MEAN_MOTION":15.7527356,"ECCENTRICITY":0.00012629,"INCLINATION":97.2869,"RA_OF_ASC_NODE":58.5015,"ARG_OF_PERICENTER":65.9557,"MEAN_ANOMALY":294.1841,"EPHEMERIS_TYPE":0,"CLASSIFICATION_TYPE":"U","NORAD_CAT_ID":68124,"ELEMENT_SET_NO":999,"REV_AT_EPOCH":592,"BSTAR":0.0012189817,"MEAN_MOTION_DOT":0.00186384,"MEAN_MOTION_DDOT":0},{"OBJECT_NAME":"STARLINK-36839","OBJECT_ID":"2026-044AA","EPOCH":"2026-04-07T06:00:02.999808","MEAN_MOTION":15.42954702,"ECCENTRICITY":0.00019316,"INCLINATION":97.285,"RA_OF_ASC_NODE":58.6124,"ARG_OF_PERICENTER":106.5063,"MEAN_ANOMALY":258.6621,"EPHEMERIS_TYPE":0,"CLASSIFICATION_TYPE":"U","NORAD_CAT_ID":68125,"ELEMENT_SET_NO":999,"REV_AT_EPOCH":594,"BSTAR":-0.044742874,"MEAN_MOTION_DOT":-0.01777453,"MEAN_MOTION_DDOT":0},{"OBJECT_NAME":"ECHOSTAR 25","OBJECT_ID":"2026-045A","EPOCH":"2026-04-07T05:18:38.777760","MEAN_MOTION":1.00271833,"ECCENTRICITY":0.00019333,"INCLINATION":0.0293,"RA_OF_ASC_NODE":284.2594,"ARG_OF_PERICENTER":154.2717,"MEAN_ANOMALY":67.7675,"EPHEMERIS_TYPE":0,"CLASSIFICATION_TYPE":"U","NORAD_CAT_ID":68126,"ELEMENT_SET_NO":999,"REV_AT_EPOCH":28,"BSTAR":0,"MEAN_MOTION_DOT":6.0e-7,"MEAN_MOTION_DDOT":0},{"OBJECT_NAME":"ICOR SV","OBJECT_ID":"2026-046A","EPOCH":"2026-04-06T21:26:51.953568","MEAN_MOTION":16.03962178,"ECCENTRICITY":0.00804123,"INCLINATION":123.0704,"RA_OF_ASC_NODE":335.4066,"ARG_OF_PERICENTER":242.6245,"MEAN_ANOMALY":116.6635,"EPHEMERIS_TYPE":0,"CLASSIFICATION_TYPE":"U","NORAD_CAT_ID":68127,"ELEMENT_SET_NO":999,"REV_AT_EPOCH":409,"BSTAR":0.0006020563,"MEAN_MOTION_DOT":0.00608189,"MEAN_MOTION_DDOT":1.2381964e-5},{"OBJECT_NAME":"FIREFLY ALPHA R/B","OBJECT_ID":"2026-046B","EPOCH":"2026-04-06T21:17:53.574432","MEAN_MOTION":15.58121163,"ECCENTRICITY":0.00176473,"INCLINATION":123.0912,"RA_OF_ASC_NODE":329.4183,"ARG_OF_PERICENTER":34.553,"MEAN_ANOMALY":325.6675,"EPHEMERIS_TYPE":0,"CLASSIFICATION_TYPE":"U","NORAD_CAT_ID":68128,"ELEMENT_SET_NO":999,"REV_AT_EPOCH":403,"BSTAR":0.00055349996,"MEAN_MOTION_DOT":0.00042395,"MEAN_MOTION_DDOT":0},{"OBJECT_NAME":"GUOWANG GROUP 20 OBJECT A","OBJECT_ID":"2026-047A","EPOCH":"2026-04-06T23:53:13.075008","MEAN_MOTION":13.78133475,"ECCENTRICITY":6.432e-5,"INCLINATION":50.0094,"RA_OF_ASC_NODE":316.5036,"ARG_OF_PERICENTER":96.7882,"MEAN_ANOMALY":263.3084,"EPHEMERIS_TYPE":0,"CLASSIFICATION_TYPE":"U","NORAD_CAT_ID":68129,"ELEMENT_SET_NO":999,"REV_AT_EPOCH":352,"BSTAR":4.0909222e-5,"MEAN_MOTION_DOT":-1.0e-6,"MEAN_MOTION_DDOT":0},{"OBJECT_NAME":"GUOWANG GROUP 20 OBJECT B","OBJECT_ID":"2026-047B","EPOCH":"2026-04-07T03:16:13.532736","MEAN_MOTION":13.78211021,"ECCENTRICITY":1.655e-5,"INCLINATION":50.0043,"RA_OF_ASC_NODE":315.9159,"ARG_OF_PERICENTER":223.1968,"MEAN_ANOMALY":136.8913,"EPHEMERIS_TYPE":0,"CLASSIFICATION_TYPE":"U","NORAD_CAT_ID":68130,"ELEMENT_SET_NO":999,"REV_AT_EPOCH":353,"BSTAR":6.3288353e-5,"MEAN_MOTION_DOT":-7.8e-7,"MEAN_MOTION_DDOT":0},{"OBJECT_NAME":"GUOWANG GROUP 20 OBJECT C","OBJECT_ID":"2026-047C","EPOCH":"2026-04-06T20:13:46.497792","MEAN_MOTION":13.78931845,"ECCENTRICITY":0.00010321,"INCLINATION":50.0098,"RA_OF_ASC_NODE":317.008,"ARG_OF_PERICENTER":254.8679,"MEAN_ANOMALY":105.2101,"EPHEMERIS_TYPE":0,"CLASSIFICATION_TYPE":"U","NORAD_CAT_ID":68131,"ELEMENT_SET_NO":999,"REV_AT_EPOCH":350,"BSTAR":3.6011227e-5,"MEAN_MOTION_DOT":-1.05e-6,"MEAN_MOTION_DDOT":0},{"OBJECT_NAME":"GUOWANG GROUP 20 OBJECT D","OBJECT_ID":"2026-047D","EPOCH":"2026-04-06T20:08:51.267264","MEAN_MOTION":13.79127979,"ECCENTRICITY":0.00010626,"INCLINATION":50.008,"RA_OF_ASC_NODE":317.019,"ARG_OF_PERICENTER":289.2039,"MEAN_ANOMALY":70.8739,"EPHEMERIS_TYPE":0,"CLASSIFICATION_TYPE":"U","NORAD_CAT_ID":68132,"ELEMENT_SET_NO":999,"REV_AT_EPOCH":349,"BSTAR":4.4585493e-5,"MEAN_MOTION_DOT":-9.6e-7,"MEAN_MOTION_DDOT":0},{"OBJECT_NAME":"GUOWANG GROUP 20 OBJECT E","OBJECT_ID":"2026-047E","EPOCH":"2026-04-06T20:03:32.545440","MEAN_MOTION":13.79411536,"ECCENTRICITY":0.00023428,"INCLINATION":50.0051,"RA_OF_ASC_NODE":316.9812,"ARG_OF_PERICENTER":207.3894,"MEAN_ANOMALY":152.6876,"EPHEMERIS_TYPE":0,"CLASSIFICATION_TYPE":"U","NORAD_CAT_ID":68133,"ELEMENT_SET_NO":999,"REV_AT_EPOCH":350,"BSTAR":2.6728586e-5,"MEAN_MOTION_DOT":-1.14e-6,"MEAN_MOTION_DDOT":0},{"OBJECT_NAME":"GUOWANG GROUP 20 OBJECT F","OBJECT_ID":"2026-047F","EPOCH":"2026-04-06T23:22:47.899200","MEAN_MOTION":13.79338194,"ECCENTRICITY":4.596e-5,"INCLINATION":50.0091,"RA_OF_ASC_NODE":316.4017,"ARG_OF_PERICENTER":308.2299,"MEAN_ANOMALY":51.8553,"EPHEMERIS_TYPE":0,"CLASSIFICATION_TYPE":"U","NORAD_CAT_ID":68134,"ELEMENT_SET_NO":999,"REV_AT_EPOCH":351,"BSTAR":8.6191995e-5,"MEAN_MOTION_DOT":-5.3e-7,"MEAN_MOTION_DDOT":0},{"OBJECT_NAME":"GUOWANG GROUP 20 OBJECT G","OBJECT_ID":"2026-047G","EPOCH":"2026-04-07T01:11:46.360032","MEAN_MOTION":13.79000829,"ECCENTRICITY":0.0003386,"INCLINATION":50.018,"RA_OF_ASC_NODE":316.1357,"ARG_OF_PERICENTER":232.04,"MEAN_ANOMALY":128.0189,"EPHEMERIS_TYPE":0,"CLASSIFICATION_TYPE":"U","NORAD_CAT_ID":68135,"ELEMENT_SET_NO":999,"REV_AT_EPOCH":353,"BSTAR":0.00012008,"MEAN_MOTION_DOT":-1.9e-7,"MEAN_MOTION_DDOT":0},{"OBJECT_NAME":"GUOWANG GROUP 20 OBJECT H","OBJECT_ID":"2026-047H","EPOCH":"2026-04-05T16:02:09.356640","MEAN_MOTION":13.82123229,"ECCENTRICITY":4.424e-5,"INCLINATION":50.0073,"RA_OF_ASC_NODE":321.486,"ARG_OF_PERICENTER":178.4138,"MEAN_ANOMALY":181.6759,"EPHEMERIS_TYPE":0,"CLASSIFICATION_TYPE":"U","NORAD_CAT_ID":68136,"ELEMENT_SET_NO":999,"REV_AT_EPOCH":333,"BSTAR":4.8153895e-5,"MEAN_MOTION_DOT":-9.1e-7,"MEAN_MOTION_DDOT":0},{"OBJECT_NAME":"GUOWANG GROUP 20 OBJECT J","OBJECT_ID":"2026-047J","EPOCH":"2026-04-06T23:12:59.909184","MEAN_MOTION":13.79863034,"ECCENTRICITY":0.00011364,"INCLINATION":50.0088,"RA_OF_ASC_NODE":316.3637,"ARG_OF_PERICENTER":7.479,"MEAN_ANOMALY":352.6121,"EPHEMERIS_TYPE":0,"CLASSIFICATION_TYPE":"U","NORAD_CAT_ID":68137,"ELEMENT_SET_NO":999,"REV_AT_EPOCH":352,"BSTAR":1.9699794e-5,"MEAN_MOTION_DOT":-1.22e-6,"MEAN_MOTION_DDOT":0},{"OBJECT_NAME":"CZ-8A R/B","OBJECT_ID":"2026-047K","EPOCH":"2026-04-07T06:35:08.242944","MEAN_MOTION":14.12234489,"ECCENTRICITY":0.0044772,"INCLINATION":49.9531,"RA_OF_ASC_NODE":312.4775,"ARG_OF_PERICENTER":236.3796,"MEAN_ANOMALY":123.2835,"EPHEMERIS_TYPE":0,"CLASSIFICATION_TYPE":"U","NORAD_CAT_ID":68138,"ELEMENT_SET_NO":999,"REV_AT_EPOCH":359,"BSTAR":0.00012385022,"MEAN_MOTION_DOT":7.7e-7,"MEAN_MOTION_DDOT":0},{"OBJECT_NAME":"SHIYAN-30 03","OBJECT_ID":"2026-048A","EPOCH":"2026-04-07T01:59:45.639168","MEAN_MOTION":14.91792684,"ECCENTRICITY":0.0002443,"INCLINATION":35.001,"RA_OF_ASC_NODE":333.9143,"ARG_OF_PERICENTER":95.5068,"MEAN_ANOMALY":264.5916,"EPHEMERIS_TYPE":0,"CLASSIFICATION_TYPE":"U","NORAD_CAT_ID":68139,"ELEMENT_SET_NO":999,"REV_AT_EPOCH":374,"BSTAR":0.00026304918,"MEAN_MOTION_DOT":2.676e-5,"MEAN_MOTION_DDOT":0},{"OBJECT_NAME":"SHIYAN-30 04","OBJECT_ID":"2026-048B","EPOCH":"2026-04-07T02:00:45.939456","MEAN_MOTION":14.91789334,"ECCENTRICITY":0.00010251,"INCLINATION":34.9925,"RA_OF_ASC_NODE":333.9101,"ARG_OF_PERICENTER":113.0368,"MEAN_ANOMALY":247.0445,"EPHEMERIS_TYPE":0,"CLASSIFICATION_TYPE":"U","NORAD_CAT_ID":68140,"ELEMENT_SET_NO":999,"REV_AT_EPOCH":374,"BSTAR":0.00025674913,"MEAN_MOTION_DOT":2.611e-5,"MEAN_MOTION_DDOT":0},{"OBJECT_NAME":"CZ-2D R/B","OBJECT_ID":"2026-048C","EPOCH":"2026-04-07T02:07:33.103776","MEAN_MOTION":14.95605531,"ECCENTRICITY":0.0016169,"INCLINATION":35.1307,"RA_OF_ASC_NODE":333.4239,"ARG_OF_PERICENTER":214.7899,"MEAN_ANOMALY":145.1753,"EPHEMERIS_TYPE":0,"CLASSIFICATION_TYPE":"U","NORAD_CAT_ID":68141,"ELEMENT_SET_NO":999,"REV_AT_EPOCH":375,"BSTAR":0.00015881,"MEAN_MOTION_DOT":1.771e-5,"MEAN_MOTION_DDOT":0},{"OBJECT_NAME":"STARLINK-36604","OBJECT_ID":"2026-049A","EPOCH":"2026-04-07T02:43:07.806720","MEAN_MOTION":15.75266076,"ECCENTRICITY":0.0001129,"INCLINATION":97.2854,"RA_OF_ASC_NODE":117.7767,"ARG_OF_PERICENTER":77.9858,"MEAN_ANOMALY":282.1534,"EPHEMERIS_TYPE":0,"CLASSIFICATION_TYPE":"U","NORAD_CAT_ID":68142,"ELEMENT_SET_NO":999,"REV_AT_EPOCH":389,"BSTAR":0.0012690183,"MEAN_MOTION_DOT":0.00194155,"MEAN_MOTION_DDOT":0},{"OBJECT_NAME":"STARLINK-36995","OBJECT_ID":"2026-049B","EPOCH":"2026-04-07T07:10:57.863712","MEAN_MOTION":15.75294616,"ECCENTRICITY":0.00011879,"INCLINATION":97.2853,"RA_OF_ASC_NODE":117.9825,"ARG_OF_PERICENTER":95.4419,"MEAN_ANOMALY":264.6982,"EPHEMERIS_TYPE":0,"CLASSIFICATION_TYPE":"U","NORAD_CAT_ID":68143,"ELEMENT_SET_NO":999,"REV_AT_EPOCH":392,"BSTAR":0.001671045,"MEAN_MOTION_DOT":0.00257959,"MEAN_MOTION_DDOT":0},{"OBJECT_NAME":"STARLINK-37020","OBJECT_ID":"2026-049C","EPOCH":"2026-04-07T05:25:45.501312","MEAN_MOTION":15.75290893,"ECCENTRICITY":9.492e-5,"INCLINATION":97.2849,"RA_OF_ASC_NODE":117.9296,"ARG_OF_PERICENTER":59.0229,"MEAN_ANOMALY":301.113,"EPHEMERIS_TYPE":0,"CLASSIFICATION_TYPE":"U","NORAD_CAT_ID":68144,"ELEMENT_SET_NO":999,"REV_AT_EPOCH":391,"BSTAR":0.0017359399,"MEAN_MOTION_DOT":0.00268268,"MEAN_MOTION_DDOT":0},{"OBJECT_NAME":"STARLINK-36244","OBJECT_ID":"2026-049D","EPOCH":"2026-04-07T02:56:20.526720","MEAN_MOTION":15.75264262,"ECCENTRICITY":0.00011672,"INCLINATION":97.2854,"RA_OF_ASC_NODE":117.7634,"ARG_OF_PERICENTER":93.8815,"MEAN_ANOMALY":266.2583,"EPHEMERIS_TYPE":0,"CLASSIFICATION_TYPE":"U","NORAD_CAT_ID":68145,"ELEMENT_SET_NO":999,"REV_AT_EPOCH":389,"BSTAR":0.0011520157,"MEAN_MOTION_DOT":0.00175848,"MEAN_MOTION_DDOT":0},{"OBJECT_NAME":"STARLINK-36980","OBJECT_ID":"2026-049E","EPOCH":"2026-04-07T03:33:49.010688","MEAN_MOTION":15.80941347,"ECCENTRICITY":0.00011469,"INCLINATION":97.2841,"RA_OF_ASC_NODE":117.8832,"ARG_OF_PERICENTER":96.5693,"MEAN_ANOMALY":263.5706,"EPHEMERIS_TYPE":0,"CLASSIFICATION_TYPE":"U","NORAD_CAT_ID":68146,"ELEMENT_SET_NO":999,"REV_AT_EPOCH":390,"BSTAR":0.0013220173,"MEAN_MOTION_DOT":0.00262348,"MEAN_MOTION_DDOT":0}]
